OBJECT_NAME,OBJECT_ID,EPOCH,MEAN_MOTION,ECCENTRICITY,INCLINATION,RA_OF_ASC_NODE,ARG_OF_PERICENTER,MEAN_ANOMALY,EPHEMERIS_TYPE,CLASSIFICATION_TYPE,NORAD_CAT_ID,ELEMENT_SET_NO,REV_AT_EPOCH,BSTAR,MEAN_MOTION_DOT,MEAN_MOTION_DDOT
NETSAT-2,2020-068X,2026-05-13T06:14:32.379936,15.44480336,.0006207,97.8632,138.5054,110.5100,249.6814,0,U,46507,999,31034,.29295E-3,.13488E-3,0
TIANQI-6,2020-076D,2026-05-13T11:47:02.546880,15.06951967,.0010706,34.9992,261.3673,226.1885,133.7940,0,U,46810,999,30334,.14739E-3,.2223E-4,0
KSM1-C,2020-081B,2026-05-13T11:48:14.046336,15.26164060,.0003026,36.8936,273.0422,278.2888,81.7518,0,U,46906,999,30386,.20931E-3,.5441E-4,0
KSM1-D,2020-081C,2026-05-13T12:20:13.799040,15.24229815,.0004856,36.8970,281.2595,315.9680,44.0682,0,U,46907,999,30380,.17466E-3,.4264E-4,0
KSM1-A,2020-081H,2026-05-13T13:02:03.596352,15.25418406,.0002779,36.8963,274.8597,10.4642,349.6164,0,U,46912,999,30388,.18339E-3,.4647E-4,0
R2,2020-081J,2026-05-13T11:41:56.594112,15.24926944,.0007387,36.8976,275.0123,341.2743,18.7734,0,U,46913,999,30668,.19557E-3,.4891E-4,0
KSM1-B,2020-081K,2026-05-13T12:18:26.593056,15.24030363,.0006194,36.9021,281.7901,337.2104,22.8369,0,U,46914,999,30689,.18655E-3,.4534E-4,0
GONETS-M 20,2020-091A,2026-05-13T13:16:54.967872,12.42893144,.0019984,82.5040,323.9725,255.8388,104.0471,0,U,47227,999,24677,.94243E-3,.14E-5,0
GONETS-M 21,2020-091B,2026-05-13T12:39:01.429632,12.42885078,.0013801,82.4963,322.7171,270.8927,89.0572,0,U,47228,999,24676,.68867E-3,.105E-5,0
GONETS-M 22,2020-091C,2026-05-13T12:00:29.089152,12.42891523,.0020857,82.5022,323.6163,250.9893,108.8927,0,U,47229,999,24671,.13115E-2,.191E-5,0
CUBEL,2021-006AM,2026-05-13T02:10:57.279936,15.40434970,.00049691,97.2366,184.0254,307.5216,52.5578,0,U,47448,999,29435,.14562488E-3,.5812E-4,0
ARKTIKA-M 1,2021-016A,2026-05-09T02:45:45.668160,2.00634688,.72733431,63.2307,63.2755,269.7576,14.8669,0,U,47719,999,3800,0,-.78E-6,0
STARLINK-2342,2021-021Z,2026-05-13T12:11:12.345792,15.54555814,.0003262,53.1573,317.9590,215.3426,144.7369,0,U,47883,999,28647,.94702E-3,.63628E-3,0
GRUS-1B,2021-022C,2026-05-13T12:44:10.262112,14.98894520,.0017116,97.5425,17.8620,76.6346,283.6784,0,U,47934,999,28070,.27987E-4,.282E-5,0
2021-022F,2021-022F,2026-05-13T12:27:09.370944,15.32484892,.0008799,97.3929,34.2554,205.1863,154.8951,0,U,47937,999,28440,.1582E-3,.4888E-4,0
UNISAT-7,2021-022P,2026-05-13T12:37:04.780992,15.39521977,.0008851,97.3924,38.1100,185.2380,174.8775,0,U,47945,999,28452,.22478E-3,.8755E-4,0
2021-022X,2021-022X,2026-05-13T13:03:27.008640,15.68254151,.0007298,97.3936,48.5515,142.4158,217.7614,0,U,47953,999,28506,.4979E-3,.55848E-3,0
2021-022AC,2021-022AC,2026-05-13T00:36:35.968320,15.93026836,.00087025,97.3825,52.4038,139.7362,220.4558,0,U,47958,999,28438,.71852475E-3,.249626E-2,.25628657E-4
GLOBAL-9,2021-023G,2026-05-13T07:03:23.319360,15.45173882,.000229,44.9806,86.4272,107.1392,252.9748,0,U,47971,999,28954,.25541E-3,.12044E-3,0
AII-BRAVO,2021-034C,2026-05-13T03:26:31.284096,15.03200745,.000695,97.5656,188.8564,44.9195,315.2592,0,U,48270,999,27435,.17455E-3,.2302E-4,0
TYVAK-182A,2021-034D,2026-05-13T10:44:26.682720,15.05821389,.0007291,97.5746,192.9728,91.5506,268.6557,0,U,48271,999,27460,.26091E-3,.3725E-4,0
CSS (TIANHE),2021-035A,2026-05-13T11:28:32.956608,15.62173368,.0004122,41.4670,173.0841,296.9881,63.0537,0,U,48274,999,28774,.13972E-3,.12315E-3,0
TYVAK-0130,2021-041BF,2026-05-13T10:17:20.117184,15.27071210,.0011127,52.9934,187.4432,63.6393,296.5745,0,U,48606,999,27507,.17953E-3,.4489E-4,0
HAIYANG-2D,2021-043A,2026-05-13T12:26:55.387104,13.83373148,.0011392,66.0005,31.0130,273.1740,86.8025,0,U,48621,999,25175,.1077E-3,.37E-6,0
2021-050D,2021-050D,2026-05-13T12:24:11.995200,15.22968612,.000641,97.3346,210.3504,42.5118,317.6614,0,U,48843,999,27368,.11206E-3,.2564E-4,0
TYVAK-0173,2021-059P,2026-05-13T11:43:45.173856,14.81768237,.0010421,96.0084,218.4721,139.1139,221.0863,0,U,48892,999,26310,.14521E-3,.1115E-4,0
MANDRAKE 2 ABLE,2021-059AE,2026-05-13T11:19:40.096704,15.53565800,.0006271,97.7047,320.6489,115.8955,244.2944,0,U,48907,999,27173,.20925E-3,.13224E-3,0
MANDRAKE 2 BAKER,2021-059AF,2026-05-13T12:01:41.373984,15.57779611,.0004884,97.7021,323.3203,113.6266,246.5502,0,U,48908,999,27189,.24178E-3,.17871E-3,0
PACE-1,2021-059AG,2026-05-13T12:10:36.001632,15.74499176,.0002882,97.6799,327.8918,98.3452,261.8138,0,U,48909,999,27233,.35268E-3,.51245E-3,0
YAM-3,2021-059AN,2026-05-13T11:41:30.358752,15.47766082,.0006609,97.6993,318.1988,116.5392,243.6535,0,U,48915,999,27162,.14561E-3,.7452E-4,0
FARADAY_PHOENIX,2021-059AX,2026-05-13T12:12:44.360064,15.70692042,.0005121,97.6855,327.9095,109.3288,250.8528,0,U,48924,999,27220,.55824E-3,.69299E-3,0
DEMO8 (TENZING),2021-059CA,2026-05-13T11:25:28.441632,15.53645456,.0008283,97.7043,324.2894,111.0659,249.1480,0,U,48951,999,27191,.19177E-3,.12151E-3,0
NAPA-2,2021-059CN,2026-05-13T11:42:29.127168,15.85078067,.0002179,97.6775,328.1082,125.6445,234.5027,0,U,48963,999,27229,.44207E-3,.104405E-2,0
FENGYUN 3E,2021-062A,2026-05-13T12:45:57.959712,14.19901339,.0001756,98.7504,137.3263,145.6108,214.5182,0,U,49008,999,25166,.14409E-5,-.41E-6,0
ISS (NAUKA),2021-066A,2026-05-13T10:11:17.528352,15.49203550,.0007522,51.6310,112.1825,54.1994,305.9693,0,U,49044,999,56654,.9508E-4,.4829E-4,0
STARLINK-3100,2021-082Q,2026-05-13T09:24:13.413024,14.98353340,.000388,69.9986,131.3091,265.6454,94.4262,0,U,49144,999,25567,.20352E-3,.2338E-4,0
CUTE,2021-088D,2026-05-13T05:22:00.323040,15.78597278,.0001685,97.4192,229.5484,271.3209,88.7865,0,U,49263,999,25701,.71034E-3,.12474E-2,0
2021-091B,2021-091B,2026-05-13T11:07:16.180608,15.18368461,.0013848,97.4484,321.5716,155.4414,204.7482,0,U,49316,999,25371,.77311E-4,.1524E-4,0
SDGSAT 1,2021-100A,2026-05-13T12:48:36.294624,15.19744205,.0009601,97.2666,181.7669,60.5910,299.6282,0,U,49387,999,25065,.99127E-4,.2055E-4,0
TEIKYOSAT-4 (OORURI),2021-102B,2026-05-13T01:15:25.161120,15.09378186,.00135095,97.3698,163.9005,58.7668,301.4883,0,U,49396,999,24742,.69714527E-4,.1055E-4,0
Z-SAT,2021-102E,2026-05-13T12:40:02.235360,15.17990844,.0017064,97.3361,169.9052,14.7744,345.3985,0,U,49399,999,24818,.102E-3,.2014E-4,0
HIBARI,2021-102F,2026-05-13T08:57:54.703584,15.31007887,.0010369,97.3271,179.6879,331.6924,28.3752,0,U,49400,999,24886,.21029E-3,.6232E-4,0
KOSEN-1,2021-102H,2026-05-13T12:46:14.350656,15.26342388,.0012712,97.3219,176.3704,337.0747,22.9923,0,U,49402,999,24873,.18262E-3,.4682E-4,0
GLOBAL-14,2021-106A,2026-05-13T09:54:57.413664,15.48911628,.0014356,42.0032,137.4611,146.9488,213.2255,0,U,49469,999,25273,.25585E-3,.13927E-3,0
GAOFEN-3 02,2021-109A,2026-05-13T11:58:02.796672,14.42212960,.0004015,98.4103,142.0875,90.9972,269.1678,0,U,49495,999,23531,.58827E-4,.15E-5,0
GLOBAL-12,2021-115BA,2026-05-13T12:06:30.890016,15.51695674,.0002253,53.1952,211.0391,330.0254,30.0627,0,U,49772,999,25051,.31965E-3,.18935E-3,0
GLOBAL-13,2021-115BB,2026-05-13T09:21:51.257376,15.44793827,.0003252,53.1972,219.8312,27.7471,332.3710,0,U,49773,999,25038,.26213E-3,.12063E-3,0
GLOBAL-17,2021-120A,2026-05-13T12:24:05.785632,15.50509499,.0012969,41.9953,255.5975,4.3674,355.7281,0,U,49949,999,24951,.30075E-3,.17391E-3,0
GLOBAL-16,2021-120B,2026-05-13T10:06:23.287968,15.48597660,.0011232,41.9957,259.2775,353.2755,6.7936,0,U,49950,999,24945,.28002E-3,.15082E-3,0
XW-3 (CAS-9),2021-131B,2026-05-13T11:36:07.009344,14.41323036,.0003874,98.4956,226.0645,184.8386,175.2766,0,U,50466,999,23011,.12001E-3,.344E-5,0
ION SCV-004,2022-002K,2026-05-13T02:52:44.950080,15.30087952,.0009051,97.2861,191.4423,114.8106,245.4077,0,U,50993,999,23993,.11365E-3,.3238E-4,0
ETV-A1,2022-002CE,2026-05-13T10:51:11.534112,15.39931329,.0006873,97.2899,199.8741,108.8552,251.3440,0,U,51060,999,24049,.16713E-3,.6574E-4,0
BRO-5,2022-002CF,2026-05-13T12:01:48.476064,15.45484364,.0006596,97.3015,206.9138,98.5234,261.6763,0,U,51061,999,24089,.21407E-3,.10179E-3,0
LUDI TANCE 1-01A (L-SAR 01A),2022-007A,2026-05-13T11:48:33.371424,14.88413933,.0001603,97.8091,141.4061,90.2749,269.8651,0,U,51284,999,23331,.46454E-4,.376E-5,0
LUDI TANCE 1-01B (L-SAR 01B),2022-018A,2026-05-13T11:00:07.907904,14.88414714,.0001603,97.8098,141.3687,92.9665,267.1735,0,U,51822,999,22854,.43215E-4,.346E-5,0
2022-019D,2022-019D,2026-05-13T13:03:18.123264,15.66213641,.0005661,97.3667,224.2786,236.0124,124.0598,0,U,51827,999,23427,.40896E-3,.42131E-3,0
2022-019J,2022-019J,2026-05-13T12:31:01.720416,15.20290915,.0008579,97.3448,197.2278,3.1500,356.9788,0,U,51832,999,23253,.54263E-4,.1112E-4,0
JILIN-1 GAOFEN 03D15,2022-019R,2026-05-13T12:21:29.628864,15.91825218,.0006078,97.3661,229.0758,233.0461,127.0257,0,U,51839,999,23459,.70656E-3,.2302E-2,.21765E-4
JILIN-1 GAOFEN 03D12,2022-019T,2026-05-13T11:45:57.651840,15.92920330,.000591,97.3614,228.9913,221.8179,138.2644,0,U,51841,999,23459,.72842E-3,.251172E-2,.25887E-4
2022-023F,2022-023F,2026-05-13T11:49:50.637216,15.17863102,.0127933,63.4487,31.4261,343.9457,15.7617,0,U,51951,999,23244,.50495E-3,.12512E-3,0
CZ-4C R/B,2022-027B,2026-05-13T09:01:25.766688,13.65477142,.0229472,63.3913,151.5972,22.7085,338.3908,0,U,52085,999,20728,.69205E-4,-.28E-6,0
MERIDIAN 10,2022-030A,2026-05-13T01:52:40.469088,2.00616430,.67743073,62.6761,144.5673,272.8798,17.7269,0,U,52145,999,3032,0,.275E-5,0
OMNI-L1,2022-033A,2026-05-13T05:17:48.341760,14.82613973,.0006172,97.8394,213.0803,51.1167,309.0596,0,U,52157,999,22227,.14557E-3,.112E-4,0
ENMAP,2022-033C,2026-05-13T11:59:41.067168,14.74956607,.0001473,97.9786,216.2416,85.3692,274.7685,0,U,52159,999,22154,.34951E-5,-.27E-6,0
ARCSAT-1,2022-033E,2026-05-13T12:40:19.841952,15.52734318,.0003814,97.2742,225.3119,341.0942,19.0169,0,U,52161,999,23032,.13674E-3,.8348E-4,0
GLOBAL-18,2022-034B,2026-05-13T04:55:43.296672,15.44785334,.00054993,52.9821,63.6253,128.2440,231.9060,0,U,52196,999,23155,.28296321E-3,.13058E-3,0
GAOFEN-3 03,2022-035A,2026-05-13T12:58:37.477056,14.42219705,.0001038,98.4077,142.6230,73.4046,286.7257,0,U,52200,999,21585,.65419E-4,.172E-5,0
